NanoFF B
1 58755U 23185S   26014.29201645  .00001938  00000-0  11971-3 0  9994
2 58755  97.5479  83.9133 0014072 112.3810 247.8912 15.10983420110626


